AMC-11 (GE-11)          
1 28252U 04017A   17115.67094046  .00000060  00000-0  00000-0 0  9998
2 28252   0.0334  15.1920 0002406  23.6080 285.6014  1.00267945 47214
INTELSAT 10-02          
1 28358U 04022A   17115.14844372 -.00000020  00000-0  00000-0 0  9995
2 28358   0.0093 205.4472 0000513  69.0797 351.2928  1.00270903 47150
APSTAR 5 (TELSTAR 18)   
1 28364U 04024A   17115.53627101 -.00000304  00000-0  00000-0 0  9991
2 28364   0.0704  91.7303 0003091 310.5161 142.5367  1.00270615 47066
ANIK F2                 
1 28378U 04027A   17115.63688932 -.00000059  00000-0  00000-0 0  9996
2 28378   0.0259 346.6482 0000307 221.6529 123.7460  1.00271888  7809
AMAZONAS 1              
1 28393U 04031A   17115.34346117 -.00000253  00000-0  00000-0 0  9998
2 28393   1.6420  83.9095 0004044 320.2378 256.8738  1.00272407 46632
AMC-15                  
1 28446U 04041A   17115.53136712 -.00000097  00000-0  00000-0 0  9993
2 28446   0.0248  74.1033 0001818 315.1511 270.6968  1.00269565 45903
AMC-16                  
1 28472U 04048A   17115.35049446 -.00000215  00000-0  00000-0 0  9998
2 28472   0.0367  33.6817 0002795  21.6637 199.3986  1.00272313 45279
NSS-10 (AMC-12)         
1 28526U 05003A   17115.34346117 -.00000259  00000-0  00000-0 0  9992
2 28526   0.0267 301.6257 0002642  89.3773 268.7483  1.00271277 19695
XTAR-EUR                
1 28542U 05005A   17114.32907356  .00000142  00000-0  00000-0 0  9997
2 28542   0.0152 135.6233 0002676 256.2820 328.1108  1.00269778 44719
XM-3 (RHYTHM)           
1 28626U 05008A   17115.36215687 -.00000214  00000-0  00000-0 0  9998
2 28626   0.0084   4.2977 0000441 283.4845 331.0465  1.00271628 44579
INMARSAT 4-F1           
1 28628U 05009A   17115.03950024 -.00000269  00000-0  00000-0 0  9996
2 28628   2.8700  11.2785 0003130  30.0250 329.6658  1.00272030 44187
APSTAR 6                
1 28638U 05012A   17115.76361543 -.00000327  00000-0  00000-0 0  9998
2 28638   0.0045 156.3582 0002426 260.8401 205.6781  1.00272930 68921
SPACEWAY 1              
1 28644U 05015A   17114.39850554 -.00000110  00000-0  00000-0 0  9991
2 28644   0.0079 207.8189 0000185  38.1135   7.2209  1.00269978 44013
DIRECTV 8               
1 28659U 05019A   17114.68884143 -.00000124  00000-0  00000-0 0  9999
2 28659   0.0151 261.1483 0003153 136.8993 321.9747  1.00269929 43654
GALAXY 28 (G-28)        
1 28702U 05022A   17115.35049446 -.00000194  00000-0  00000-0 0  9993
2 28702   0.0131 231.9053 0001685 162.7137 216.1085  1.00270130 18620
EXPRESS-AM3             
1 28707U 05023A   17115.85674529 -.00000331  00000-0  00000-0 0  9993
2 28707   0.0008 297.2971 0001244 115.8242 212.3657  1.00270541 43356
THAICOM 4               
1 28786U 05028A   17115.10570844 -.00000372  00000-0  00000-0 0  9993
2 28786   0.0115 250.1841 0001922 137.8684 342.8104  1.00267137 42838
GALAXY 14 (G-14)        
1 28790U 05030A   17115.14493573  .00000028  00000-0  00000-0 0  9995
2 28790   0.0565  82.0232 0002174 300.9471 117.5448  1.00271011 42839
ANIK F1R                
1 28868U 05036A   17115.52718220 -.00000083  00000-0  00000-0 0  9990
2 28868   0.0591  67.7112 0002909 327.1166 261.3893  1.00271773 42667
GALAXY 15 (G-15)        
1 28884U 05041A   17115.46850052  .00000070  00000-0  00000-0 0  9992
2 28884   0.0521  86.2994 0001628 316.6070 206.4218  1.00271512 42130
SYRACUSE 3A             
1 28885U 05041B   17115.70991675  .00000119  00000-0  00000-0 0  9991
2 28885   0.0165 299.6744 0002983  95.3299 121.4517  1.00271441 42248
INMARSAT 4-F2           
1 28899U 05044A   17115.25951085  .00000002  00000-0  00000-0 0  9991
2 28899   2.5640  11.1378 0002401  30.9985 328.6362  1.00273776 42017
TELKOM 2                
1 28902U 05046A   17112.60952086 -.00000371  00000-0  00000-0 0  9996
2 28902   0.0266 242.9679 0000869 181.3340 123.8784  1.00267947 41722
SPACEWAY 2              
1 28903U 05046B   17115.54019468 -.00000135  00000-0  00000-0 0  9999
2 28903   0.0092  73.4114 0000056 193.5323  42.1901  1.00269418 42006
INSAT-4A                
1 28911U 05049A   17115.17667989 -.00000174  00000-0  00000-0 0  9990
2 28911   0.1021  94.0267 0003540 233.1763  32.7848  1.00271789 12237
METEOSAT-9 (MSG-2)      
1 28912U 05049B   17115.27278552  .00000053  00000-0  00000-0 0  9991
2 28912   2.1007  70.7909 0000583 117.9978 132.1521  1.00269091 41585
EUTELSAT 172A (GE-23)   
1 28924U 05052A   17115.45535384 -.00000016  00000-0  00000-0 0  9997
2 28924   0.0703   6.3175 0005768  29.0262 154.2298  1.00271440 18869
ECHOSTAR 10             
1 28935U 06003A   17115.52283095 -.00000064  00000-0  00000-0 0  9996
2 28935   0.0656  80.0274 0001627 339.0059 232.7210  1.00270466 40997
HIMAWARI-7 (MTSAT-2)    
1 28937U 06004A   17115.86045336 -.00000252  00000-0  00000-0 0  9999
2 28937   0.0654  92.9800 0003459 303.9024 271.9394  1.00274679 40999
SPAINSAT                
1 28945U 06007A   17114.49250294 -.00000224  00000-0  00000-0 0  9999
2 28945   0.0192 221.6803 0002274 169.9939 328.3490  1.00272256 40733
EUTELSAT HOT BIRD 13E   
1 28946U 06007B   17115.37066528  .00000078  00000-0  00000-0 0  9999
2 28946   0.0646 261.1539 0002355 192.8347 266.0478  1.00275817 40810
JCSAT-5A                
1 29045U 06010A   17115.81843373 -.00000338  00000-0  00000-0 0  9994
2 29045   0.0155 272.6167 0001883 152.4557 215.6304  1.00271189 40456
ASTRA 1KR               
1 29055U 06012A   17115.71042260  .00000110  00000-0  00000-0 0  9999
2 29055   0.0518 276.3064 0001090  46.8666 165.6691  1.00269715 40268
GOES 13                 
1 29155U 06018A   17114.61672908 -.00000259  00000-0  00000-0 0  9997
2 29155   0.2930 272.9073 0004814 152.0850 295.0674  1.00276785 40021
EUTELSAT 113 WEST A     
1 29162U 06020A   17114.72248777 -.00000046  00000-0  00000-0 0  9997
2 29162   0.0116 306.3210 0002939  92.9912 320.7186  1.00272719 39985
THAICOM 5               
1 29163U 06020B   17115.42827171 -.00000130  00000-0  00000-0 0  9991
2 29163   0.0169 254.4293 0003476 119.9375  71.9419  1.00269434 40007
GALAXY 16 (G-16)        
1 29236U 06023A   17115.49271399 -.00000136  00000-0  00000-0 0  9993
2 29236   0.0229 148.4175 0002607 258.5588 245.0865  1.00270574 39775
EUTELSAT HOT BIRD 13B   
1 29270U 06032A   17115.76316241  .00000077  00000-0  00000-0 0  9990
2 29270   0.0888 321.2650 0004857  57.3955 123.0538  1.00273790 13840
JCSAT-3A                
1 29272U 06033A   17115.84459341 -.00000355  00000-0  00000-0 0  9991
2 29272   0.0196 263.1417 0001762 155.9975 226.9701  1.00271624 39272
SYRACUSE 3B             
1 29273U 06033B   17115.09871021 -.00000053  00000-0  00000-0 0  9997
2 29273   0.0411  80.5030 0004715 299.4680 223.6721  1.00271944 39229
KOREASAT 5 (MUGUNGWHA 5)
1 29349U 06034A   17115.76031392 -.00000368  00000-0  00000-0 0  9994
2 29349   0.0077 258.2384 0000665 215.6255 126.8714  1.00268670 39144
ZHONGXING-22A           
1 29398U 06038A   17115.79789094 -.00000326  00000-0  00000-0 0  9998
2 29398   5.6962  58.0831 0001810 259.9856 284.9221  1.00269901 38928
DIRECTV 9S              
1 29494U 06043A   17115.35890854 -.00000123  00000-0  00000-0 0  9995
2 29494   0.0473  88.8013 0003071 303.5903 209.2766  1.00271385 17913
OPTUS D1                
1 29495U 06043B   17115.74826632 -.00000120  00000-0  00000-0 0  9999
2 29495   0.0569  82.2713 0003265 311.7238 249.3314  1.00271309 38634
XM-4 (BLUES)            
1 29520U 06049A   17115.17956098 -.00000032  00000-0  00000-0 0  9993
2 29520   0.0383  57.5396 0000083  92.0384  13.2257  1.00272103 38508
BADR-4                  
1 29526U 06051A   17115.82275927  .00000135  00000-0  00000-0 0  9992
2 29526   0.0540 332.2002 0005076  24.8212 179.1827  1.00270489 17828
FENGYUN 2D              
1 29640U 06053A   17115.87629896 -.00000367  00000-0  10000-3 0  9996
2 29640   4.3563  64.6252 0004858 342.4452 246.2622  1.00277768 38078
WILDBLUE-1              
1 29643U 06054A   17115.52056126 -.00000058  00000-0  00000-0 0  9995
2 29643   0.0547  94.3183 0001576 300.4764 255.1610  1.00271921 20312
AMC-18                  
1 29644U 06054B   17115.53136712 -.00000098  00000-0  00000-0 0  9991
2 29644   0.0354  60.1582 0002367 336.0742 263.8344  1.00271035 38060
MEASAT-3                
1 29648U 06056A   17115.83250056 -.00000252  00000-0  00000-0 0  9990
2 29648   0.0595 113.4965 0002452 339.3321 152.4201  1.00272460 38071
INSAT-4B                
1 30793U 07007A   17115.51009687 -.00000268  00000-0  00000-0 0  9994
2 30793   0.1151  95.4375 0006772 328.2726  67.1444  1.00272146  8723
SKYNET 5A               
1 30794U 07007B   17115.88057300 -.00000282  00000-0  00000-0 0  9996
2 30794   0.0701  12.4385 0003524  24.1481 229.7074  1.00273109 37161
ANIK F3                 
1 31102U 07009A   17115.50704486 -.00000010  00000-0  00000-0 0  9994
2 31102   0.0118 203.8810 0002042 192.1420 241.5118  1.00271549 13070
ASTRA 1L                
1 31306U 07016A   17115.71042260  .00000110  00000-0  00000-0 0  9996
2 31306   0.0693 304.9327 0003613  42.8835 141.0390  1.00269154 36559
GALAXY 17 (G-17)        
1 31307U 07016B   17115.33923672 -.00000183  00000-0  00000-0 0  9991
2 31307   0.0472  46.0084 0003216 356.0759 202.5930  1.00272702 36582
ZHONGXING-6B            
1 31800U 07031A   17115.59163520 -.00000371  00000-0  00000-0 0  9991
2 31800   0.0027 309.0285 0002261  79.7037 153.5822  1.00269604 35950
DIRECTV 10              
1 31862U 07032A   17113.69699279 -.00000111  00000-0  00000-0 0  9996
2 31862   0.0249   6.5432 0000125 298.5973  54.8673  1.00272048 35902
SPACEWAY 3              
1 32018U 07036A   17115.33218765 -.00000161  00000-0  00000-0 0  9999
2 32018   0.0044 134.7183 0000281 117.4139 346.0497  1.00271892 13106
BSAT-3A                 
1 32019U 07036B   17115.10228520 -.00000360  00000-0  00000-0 0  9996
2 32019   0.0423 165.4700 0000756  86.9171 107.6142  1.00272090 17010
